{"type": "FeatureCollection", "features": [ {"type": "Feature", "properties": {"norad_id": 31753, "name": "FENGYUN 1C DEB", "group": "fengyun-1c-debris", "lat": 64.35485825589022, "lon": -7.791083041233918, "alt_km": 903.9574611874723, "timestamp": "2025-12-03T06:58:43.521839+00:00", "meta": {"OBJECT_NAME": "FENGYUN 1C DEB", "OBJECT_ID": "1999-025CFC", "EPOCH": "2025-12-02T08:43:58.756800", "MEAN_MOTION": 14.1861211, "ECCENTRICITY": 0.01585846, "INCLINATION": 98.6327, "RA_OF_ASC_NODE": 9.7538, "ARG_OF_PERICENTER": 203.6775, "MEAN_ANOMALY": 172.368, "EPHEMERIS_TYPE": 0, "CLASSIFICATION_TYPE": "U", "NORAD_CAT_ID": 31753, "ELEMENT_SET_NO": 999, "REV_AT_EPOCH": 95872, "BSTAR": 0.00042422979, "MEAN_MOTION_DOT": 9.52e-06, "MEAN_MOTION_DDOT": 0}, "tle": {"line1": "1 31753U 99025CFC 25336.36387450  .00000952  00000+0  42423-3 0  9992", "line2": "2 31753  98.6327   9.7538 0158584 203.6775 172.3680 14.18612110958722"}}, "geometry": {"type": "Point", "coordinates": [-7.791083041233918, 64.35485825589022]}}, {"type": "Feature", "properties": {"norad_id": 31754, "name": "FENGYUN 1C DEB", "group": "fengyun-1c-debris", "lat": 75.24769172247069, "lon": -95.1659503849763, "alt_km": 778.5881299828934, "timestamp": "2025-12-03T06:58:43.521849+00:00", "meta": {"OBJECT_NAME": "FENGYUN 1C DEB", "OBJECT_ID": "1999-025CFD", "EPOCH": "2025-12-02T03:58:18.660864", "MEAN_MOTION": 14.42137718, "ECCENTRICITY": 0.00492209, "INCLINATION": 99.0387, "RA_OF_ASC_NODE": 300.8366, "ARG_OF_PERICENTER": 249.9575, "MEAN_ANOMALY": 109.631, "EPHEMERIS_TYPE": 0, "CLASSIFICATION_TYPE": "U", "NORAD_CAT_ID": 31754, "ELEMENT_SET_NO": 999, "REV_AT_EPOCH": 96837, "BSTAR": 0.0013252392, "MEAN_MOTION_DOT": 4.376e-05, "MEAN_MOTION_DDOT": 0}, "tle": {"line1": "1 31754U 99025CFD 25336.16549376  .00004376  00000+0  13252-2 0  9999", "line2": "2 31754  99.0387 300.8366 0049220 249.9575 109.6310 14.42137718968373"}}, "geometry": {"type": "Point", "coordinates": [-95.1659503849763, 75.24769172247069]}}, {"type": "Feature", "properties": {"norad_id": 31757, "name": "FENGYUN 1C DEB", "group": "fengyun-1c-debris", "lat": 5.883511505922665, "lon": -179.4606099330684, "alt_km": 795.1524320050576, "timestamp": "2025-12-03T06:58:43.521859+00:00", "meta": {"OBJECT_NAME": "FENGYUN 1C DEB", "OBJECT_ID": "1999-025CFG", "EPOCH": "2025-11-25T07:08:44.431872", "MEAN_MOTION": 14.07896533, "ECCENTRICITY": 0.0217941, "INCLINATION": 98.7698, "RA_OF_ASC_NODE": 351.8577, "ARG_OF_PERICENTER": 133.0933, "MEAN_ANOMALY": 228.8704, "EPHEMERIS_TYPE": 0, "CLASSIFICATION_TYPE": "U", "NORAD_CAT_ID": 31757, "ELEMENT_SET_NO": 999, "REV_AT_EPOCH": 63636, "BSTAR": 0.00027065602, "MEAN_MOTION_DOT": 5.3e-06, "MEAN_MOTION_DDOT": 0}, "tle": {"line1": "1 31757U 99025CFG 25329.29773648  .00000530  00000+0  27066-3 0  9996", "line2": "2 31757  98.7698 351.8577 0217941 133.0933 228.8704 14.07896533636365"}}, "geometry": {"type": "Point", "coordinates": [-179.4606099330684, 5.883511505922665]}}, {"type": "Feature", "properties": {"norad_id": 31758, "name": "FENGYUN 1C DEB", "group": "fengyun-1c-debris", "lat": -23.096759928994118, "lon": -9.655792924397273, "alt_km": 935.2197466060215, "timestamp": "2025-12-03T06:58:43.521870+00:00", "meta": {"OBJECT_NAME": "FENGYUN 1C DEB", "OBJECT_ID": "1999-025CFH", "EPOCH": "2025-12-01T11:46:52.006944", "MEAN_MOTION": 14.41625426, "ECCENTRICITY": 0.03190662, "INCLINATION": 98.062, "RA_OF_ASC_NODE": 345.1761, "ARG_OF_PERICENTER": 124.3809, "MEAN_ANOMALY": 238.7997, "EPHEMERIS_TYPE": 0, "CLASSIFICATION_TYPE": "U", "NORAD_CAT_ID": 31758, "ELEMENT_SET_NO": 999, "REV_AT_EPOCH": 94038, "BSTAR": 0.0019154087, "MEAN_MOTION_DOT": 0.00011484, "MEAN_MOTION_DDOT": 0}, "tle": {"line1": "1 31758U 99025CFH 25335.49087971  .00011484  00000+0  19154-2 0  9991", "line2": "2 31758  98.0620 345.1761 0319066 124.3809 238.7997 14.41625426940384"}}, "geometry": {"type": "Point", "coordinates": [-9.655792924397273, -23.096759928994118]}}, {"type": "Feature", "properties": {"norad_id": 31760, "name": "FENGYUN 1C DEB", "group": "fengyun-1c-debris", "lat": 14.197458091226235, "lon": 72.00223122497738, "alt_km": 824.8166904865566, "timestamp": "2025-12-03T06:58:43.521883+00:00", "meta": {"OBJECT_NAME": "FENGYUN 1C DEB", "OBJECT_ID": "1999-025CFK", "EPOCH": "2025-12-02T00:41:11.800320", "MEAN_MOTION": 14.30106953, "ECCENTRICITY": 0.00524277, "INCLINATION": 99.2548, "RA_OF_ASC_NODE": 73.0252, "ARG_OF_PERICENTER": 227.9363, "MEAN_ANOMALY": 131.7351, "EPHEMERIS_TYPE": 0, "CLASSIFICATION_TYPE": "U", "NORAD_CAT_ID": 31760, "ELEMENT_SET_NO": 999, "REV_AT_EPOCH": 95979, "BSTAR": 0.00089347844, "MEAN_MOTION_DOT": 2.295e-05, "MEAN_MOTION_DDOT": 0}, "tle": {"line1": "1 31760U 99025CFK 25336.02860880  .00002295  00000+0  89348-3 0  9995", "line2": "2 31760  99.2548  73.0252 0052427 227.9363 131.7351 14.30106953959799"}}, "geometry": {"type": "Point", "coordinates": [72.00223122497738, 14.197458091226235]}}, {"type": "Feature", "properties": {"norad_id": 31761, "name": "FENGYUN 1C DEB", "group": "fengyun-1c-debris", "lat": 59.59470136912093, "lon": -173.40355512446573, "alt_km": 1091.6036156373193, "timestamp": "2025-12-03T06:58:43.521893+00:00", "meta": {"OBJECT_NAME": "FENGYUN 1C DEB", "OBJECT_ID": "1999-025CFL", "EPOCH": "2025-12-02T13:34:23.249568", "MEAN_MOTION": 14.03163845, "ECCENTRICITY": 0.04738026, "INCLINATION": 98.6355, "RA_OF_ASC_NODE": 200.9137, "ARG_OF_PERICENTER": 292.1443, "MEAN_ANOMALY": 63.009, "EPHEMERIS_TYPE": 0, "CLASSIFICATION_TYPE": "U", "NORAD_CAT_ID": 31761, "ELEMENT_SET_NO": 999, "REV_AT_EPOCH": 57968, "BSTAR": 0.0028155345, "MEAN_MOTION_DOT": 0.00011989, "MEAN_MOTION_DDOT": 0}, "tle": {"line1": "1 31761U 99025CFL 25336.56554687  .00011989  00000+0  28155-2 0  9998", "line2": "2 31761  98.6355 200.9137 0473802 292.1443  63.0090 14.03163845579685"}}, "geometry": {"type": "Point", "coordinates": [-173.40355512446573, 59.59470136912093]}}, {"type": "Feature", "properties": {"norad_id": 31763, "name": "FENGYUN 1C DEB", "group": "fengyun-1c-debris", "lat": 80.99124022650938, "lon": 15.992702824628394, "alt_km": 658.5622560471193, "timestamp": "2025-12-03T06:58:43.521904+00:00", "meta": {"OBJECT_NAME": "FENGYUN 1C DEB", "OBJECT_ID": "1999-025CFN", "EPOCH": "2025-12-02T05:49:28.632000", "MEAN_MOTION": 13.502872, "ECCENTRICITY": 0.0547439, "INCLINATION": 98.5207, "RA_OF_ASC_NODE": 86.0972, "ARG_OF_PERICENTER": 96.7771, "MEAN_ANOMALY": 298.9522, "EPHEMERIS_TYPE": 0, "CLASSIFICATION_TYPE": "U", "NORAD_CAT_ID": 31763, "ELEMENT_SET_NO": 999, "REV_AT_EPOCH": 90864, "BSTAR": 0.0009958, "MEAN_MOTION_DOT": 1.6e-05, "MEAN_MOTION_DDOT": 0}, "tle": {"line1": "1 31763U 99025CFN 25336.24269250  .00001600  00000+0  99580-3 0  9994", "line2": "2 31763  98.5207  86.0972 0547439  96.7771 298.9522 13.50287200908646"}}, "geometry": {"type": "Point", "coordinates": [15.992702824628394, 80.99124022650938]}}, {"type": "Feature", "properties": {"norad_id": 31766, "name": "FENGYUN 1C DEB", "group": "fengyun-1c-debris", "lat": 6.8599738830840655, "lon": -25.692127124583195, "alt_km": 842.3199936395158, "timestamp": "2025-12-03T06:58:43.521913+00:00", "meta": {"OBJECT_NAME": "FENGYUN 1C DEB", "OBJECT_ID": "1999-025CFR", "EPOCH": "2025-12-02T05:18:51.312672", "MEAN_MOTION": 14.05269134, "ECCENTRICITY": 0.0073838, "INCLINATION": 98.8156, "RA_OF_ASC_NODE": 334.3381, "ARG_OF_PERICENTER": 320.8627, "MEAN_ANOMALY": 38.7214, "EPHEMERIS_TYPE": 0, "CLASSIFICATION_TYPE": "U", "NORAD_CAT_ID": 31766, "ELEMENT_SET_NO": 999, "REV_AT_EPOCH": 63938, "BSTAR": 0.00033003, "MEAN_MOTION_DOT": 5.04e-06, "MEAN_MOTION_DDOT": 0}, "tle": {"line1": "1 31766U 99025CFR 25336.22142723  .00000504  00000+0  33003-3 0  9990", "line2": "2 31766  98.8156 334.3381 0073838 320.8627  38.7214 14.05269134639383"}}, "geometry": {"type": "Point", "coordinates": [-25.692127124583195, 6.8599738830840655]}}, {"type": "Feature", "properties": {"norad_id": 31767, "name": "FENGYUN 1C DEB", "group": "fengyun-1c-debris", "lat": -10.121942509899752, "lon": 8.834041764901128, "alt_km": 889.0857804131101, "timestamp": "2025-12-03T06:58:43.521924+00:00", "meta": {"OBJECT_NAME": "FENGYUN 1C DEB", "OBJECT_ID": "1999-025CFS", "EPOCH": "2025-12-01T14:37:35.233248", "MEAN_MOTION": 14.04944671, "ECCENTRICITY": 0.0041867, "INCLINATION": 98.8235, "RA_OF_ASC_NODE": 5.6102, "ARG_OF_PERICENTER": 100.5814, "MEAN_ANOMALY": 30.5422, "EPHEMERIS_TYPE": 0, "CLASSIFICATION_TYPE": "U", "NORAD_CAT_ID": 31767, "ELEMENT_SET_NO": 999, "REV_AT_EPOCH": 94669, "BSTAR": 0.00034816625, "MEAN_MOTION_DOT": 5.22e-06, "MEAN_MOTION_DDOT": 0}, "tle": {"line1": "1 31767U 99025CFS 25335.60943557  .00000522  00000+0  34817-3 0  9990", "line2": "2 31767  98.8235   5.6102 0041867 100.5814  30.5422 14.04944671946690"}}, "geometry": {"type": "Point", "coordinates": [8.834041764901128, -10.121942509899752]}}, {"type": "Feature", "properties": {"norad_id": 31768, "name": "FENGYUN 1C DEB", "group": "fengyun-1c-debris", "lat": -30.909860893053164, "lon": -136.41913742608187, "alt_km": 666.7178899792798, "timestamp": "2025-12-03T06:58:43.521934+00:00", "meta": {"OBJECT_NAME": "FENGYUN 1C DEB", "OBJECT_ID": "1999-025CFT", "EPOCH": "2025-12-02T04:07:21.949248", "MEAN_MOTION": 14.75548575, "ECCENTRICITY": 0.00263537, "INCLINATION": 99.0444, "RA_OF_ASC_NODE": 47.8032, "ARG_OF_PERICENTER": 15.377, "MEAN_ANOMALY": 15.2605, "EPHEMERIS_TYPE": 0, "CLASSIFICATION_TYPE": "U", "NORAD_CAT_ID": 31768, "ELEMENT_SET_NO": 999, "REV_AT_EPOCH": 96717, "BSTAR": 0.0028905005, "MEAN_MOTION_DOT": 0.00019795, "MEAN_MOTION_DDOT": 0}, "tle": {"line1": "1 31768U 99025CFT 25336.17178182  .00019795  00000+0  28905-2 0  9990", "line2": "2 31768  99.0444  47.8032 0026353  15.3770  15.2605 14.75548575967173"}}, "geometry": {"type": "Point", "coordinates": [-136.41913742608187, -30.909860893053164]}}]}